{
  "type": "FeatureCollection",
  "features": [
    {
      "type": "Feature",
      "properties": {
        "norad_id": 30454,
        "name": "FENGYUN 1C DEB",
        "group": "fengyun-1c-debris",
        "lat": -75.37576857274686,
        "lon": -4.460541914992003,
        "alt_km": 876.4851946847284,
        "timestamp": "2025-12-18T13:51:49.960330+00:00",
        "meta_object_name": "FENGYUN 1C DEB",
        "meta_object_id": "1999-025AFR",
        "meta_epoch": "2025-12-17T21:24:40.941792",
        "meta_mean_motion": 14.1542363,
        "meta_eccentricity": 0.01711722,
        "meta_inclination": 98.1329,
        "meta_ra_of_asc_node": 321.6819,
        "meta_arg_of_pericenter": 180.0163,
        "meta_mean_anomaly": 209.194,
        "meta_ephemeris_type": 0,
        "meta_classification_type": "U",
        "meta_norad_cat_id": 30454,
        "meta_element_set_no": 999,
        "meta_rev_at_epoch": 96033,
        "meta_bstar": 0.001266654,
        "meta_mean_motion_dot": 2.811e-05,
        "meta_mean_motion_ddot": 0,
        "tle_line1": "1 30454U 99025AFR 25351.89214053  .00002811  00000+0  12667-2 0  9994",
        "tle_line2": "2 30454  98.1329 321.6819 0171172 180.0163 209.1940 14.15423630960333"
      },
      "geometry": {
        "type": "Point",
        "coordinates": [
          -4.460541914992003,
          -75.37576857274686
        ]
      }
    },
    {
      "type": "Feature",
      "properties": {
        "norad_id": 30462,
        "name": "FENGYUN 1C DEB",
        "group": "fengyun-1c-debris",
        "lat": -8.31038146665109,
        "lon": 159.3722719837561,
        "alt_km": 804.6615898528644,
        "timestamp": "2025-12-18T13:51:49.960340+00:00",
        "meta_object_name": "FENGYUN 1C DEB",
        "meta_object_id": "1999-025AFZ",
        "meta_epoch": "2025-12-18T06:12:29.648736",
        "meta_mean_motion": 14.06269601,
        "meta_eccentricity": 0.01389254,
        "meta_inclination": 98.8168,
        "meta_ra_of_asc_node": 340.3606,
        "meta_arg_of_pericenter": 234.6095,
        "meta_mean_anomaly": 140.8198,
        "meta_ephemeris_type": 0,
        "meta_classification_type": "U",
        "meta_norad_cat_id": 30462,
        "meta_element_set_no": 999,
        "meta_rev_at_epoch": 96871,
        "meta_bstar": 0.00029733199,
        "meta_mean_motion_dot": 4.91e-06,
        "meta_mean_motion_ddot": 0,
        "tle_line1": "1 30462U 99025AFZ 25352.25867649  .00000491  00000+0  29733-3 0  9994",
        "tle_line2": "2 30462  98.8168 340.3606 0138925 234.6095 140.8198 14.06269601968713"
      },
      "geometry": {
        "type": "Point",
        "coordinates": [
          159.3722719837561,
          -8.31038146665109
        ]
      }
    },
    {
      "type": "Feature",
      "properties": {
        "norad_id": 30464,
        "name": "FENGYUN 1C DEB",
        "group": "fengyun-1c-debris",
        "lat": -33.43619336907396,
        "lon": 48.675901650044544,
        "alt_km": 855.9425387154652,
        "timestamp": "2025-12-18T13:51:49.960351+00:00",
        "meta_object_name": "FENGYUN 1C DEB",
        "meta_object_id": "1999-025AGB",
        "meta_epoch": "2025-12-18T02:14:53.505312",
        "meta_mean_motion": 14.10247579,
        "meta_eccentricity": 0.01084137,
        "meta_inclination": 98.8364,
        "meta_ra_of_asc_node": 42.305,
        "meta_arg_of_pericenter": 243.3095,
        "meta_mean_anomaly": 145.8845,
        "meta_ephemeris_type": 0,
        "meta_classification_type": "U",
        "meta_norad_cat_id": 30464,
        "meta_element_set_no": 999,
        "meta_rev_at_epoch": 97139,
        "meta_bstar": 9.9463752e-05,
        "meta_mean_motion_dot": 1.42e-06,
        "meta_mean_motion_ddot": 0,
        "tle_line1": "1 30464U 99025AGB 25352.09367483  .00000142  00000+0  99464-4 0  9991",
        "tle_line2": "2 30464  98.8364  42.3050 0108413 243.3095 145.8845 14.10247579971398"
      },
      "geometry": {
        "type": "Point",
        "coordinates": [
          48.675901650044544,
          -33.43619336907396
        ]
      }
    },
    {
      "type": "Feature",
      "properties": {
        "norad_id": 30465,
        "name": "FENGYUN 1C DEB",
        "group": "fengyun-1c-debris",
        "lat": -52.00184506179228,
        "lon": 92.38892420090966,
        "alt_km": 780.6686214312158,
        "timestamp": "2025-12-18T13:51:49.960361+00:00",
        "meta_object_name": "FENGYUN 1C DEB",
        "meta_object_id": "1999-025AGC",
        "meta_epoch": "2025-12-18T06:01:16.182336",
        "meta_mean_motion": 14.33930039,
        "meta_eccentricity": 0.00164386,
        "meta_inclination": 98.8298,
        "meta_ra_of_asc_node": 80.5788,
        "meta_arg_of_pericenter": 13.803,
        "meta_mean_anomaly": 47.6264,
        "meta_ephemeris_type": 0,
        "meta_classification_type": "U",
        "meta_norad_cat_id": 30465,
        "meta_element_set_no": 999,
        "meta_rev_at_epoch": 97437,
        "meta_bstar": 0.0014844401,
        "meta_mean_motion_dot": 4.101e-05,
        "meta_mean_motion_ddot": 0,
        "tle_line1": "1 30465U 99025AGC 25352.25088174  .00004101  00000+0  14844-2 0  9993",
        "tle_line2": "2 30465  98.8298  80.5788 0016438  13.8030  47.6264 14.33930039974371"
      },
      "geometry": {
        "type": "Point",
        "coordinates": [
          92.38892420090966,
          -52.00184506179228
        ]
      }
    },
    {
      "type": "Feature",
      "properties": {
        "norad_id": 30466,
        "name": "FENGYUN 1C DEB",
        "group": "fengyun-1c-debris",
        "lat": 10.386907971245064,
        "lon": 30.900488923767256,
        "alt_km": 734.6683531477347,
        "timestamp": "2025-12-18T13:51:49.960371+00:00",
        "meta_object_name": "FENGYUN 1C DEB",
        "meta_object_id": "1999-025AGD",
        "meta_epoch": "2025-12-18T02:17:21.505920",
        "meta_mean_motion": 14.22559754,
        "meta_eccentricity": 0.01162245,
        "meta_inclination": 98.6549,
        "meta_ra_of_asc_node": 32.0266,
        "meta_arg_of_pericenter": 8.7699,
        "meta_mean_anomaly": 53.3458,
        "meta_ephemeris_type": 0,
        "meta_classification_type": "U",
        "meta_norad_cat_id": 30466,
        "meta_element_set_no": 999,
        "meta_rev_at_epoch": 97427,
        "meta_bstar": 0.00093169965,
        "meta_mean_motion_dot": 2.186e-05,
        "meta_mean_motion_ddot": 0,
        "tle_line1": "1 30466U 99025AGD 25352.09538780  .00002186  00000+0  93170-3 0  9990",
        "tle_line2": "2 30466  98.6549  32.0266 0116224   8.7699  53.3458 14.22559754974277"
      },
      "geometry": {
        "type": "Point",
        "coordinates": [
          30.900488923767256,
          10.386907971245064
        ]
      }
    },
    {
      "type": "Feature",
      "properties": {
        "norad_id": 30467,
        "name": "FENGYUN 1C DEB",
        "group": "fengyun-1c-debris",
        "lat": 50.3119233875357,
        "lon": 9.365974787763982,
        "alt_km": 805.9135320898467,
        "timestamp": "2025-12-18T13:51:49.960381+00:00",
        "meta_object_name": "FENGYUN 1C DEB",
        "meta_object_id": "1999-025AGE",
        "meta_epoch": "2025-12-18T02:03:26.888832",
        "meta_mean_motion": 14.17293738,
        "meta_eccentricity": 0.00652975,
        "meta_inclination": 98.6784,
        "meta_ra_of_asc_node": 19.4912,
        "meta_arg_of_pericenter": 112.3605,
        "meta_mean_anomaly": 310.9102,
        "meta_ephemeris_type": 0,
        "meta_classification_type": "U",
        "meta_norad_cat_id": 30467,
        "meta_element_set_no": 999,
        "meta_rev_at_epoch": 97253,
        "meta_bstar": 0.0007508548,
        "meta_mean_motion_dot": 1.507e-05,
        "meta_mean_motion_ddot": 0,
        "tle_line1": "1 30467U 99025AGE 25352.08572788  .00001507  00000+0  75085-3 0  9997",
        "tle_line2": "2 30467  98.6784  19.4912 0065297 112.3605 310.9102 14.17293738972534"
      },
      "geometry": {
        "type": "Point",
        "coordinates": [
          9.365974787763982,
          50.3119233875357
        ]
      }
    },
    {
      "type": "Feature",
      "properties": {
        "norad_id": 30468,
        "name": "FENGYUN 1C DEB",
        "group": "fengyun-1c-debris",
        "lat": 72.35056484690918,
        "lon": 44.54165579029445,
        "alt_km": 783.6468802990757,
        "timestamp": "2025-12-18T13:51:49.960391+00:00",
        "meta_object_name": "FENGYUN 1C DEB",
        "meta_object_id": "1999-025AGF",
        "meta_epoch": "2025-12-18T05:19:32.401056",
        "meta_mean_motion": 14.20741893,
        "meta_eccentricity": 0.0071584,
        "meta_inclination": 98.9222,
        "meta_ra_of_asc_node": 73.7694,
        "meta_arg_of_pericenter": 24.0862,
        "meta_mean_anomaly": 31.4426,
        "meta_ephemeris_type": 0,
        "meta_classification_type": "U",
        "meta_norad_cat_id": 30468,
        "meta_element_set_no": 999,
        "meta_rev_at_epoch": 96888,
        "meta_bstar": 0.0011866687,
        "meta_mean_motion_dot": 2.582e-05,
        "meta_mean_motion_ddot": 0,
        "tle_line1": "1 30468U 99025AGF 25352.22190279  .00002582  00000+0  11867-2 0  9996",
        "tle_line2": "2 30468  98.9222  73.7694 0071584  24.0862  31.4426 14.20741893968886"
      },
      "geometry": {
        "type": "Point",
        "coordinates": [
          44.54165579029445,
          72.35056484690918
        ]
      }
    }
  ]
}